STARLINK-36779          
1 67869U 26034V   26146.29980517  .00017689  00000+0  53317-3 0  9993
2 67869  53.1577 201.9421 0000802  66.6644 293.4443 15.34415491 15931
STARLINK-36770          
1 67870U 26034W   26145.86785589  .00013128  00000+0  45445-3 0  9996
2 67870  53.1569 205.6359 0000857  84.5511 275.5588 15.30209889 15857
STARLINK-36769          
1 67871U 26034X   26145.47386135  .00014437  00000+0  49856-3 0  9992
2 67871  53.1565 207.4439 0001630  94.0076 266.1111 15.30203721 15795
STARLINK-36786          
1 67872U 26034Y   26146.18599213  .00018662  00000+0  64061-3 0  9994
2 67872  53.1571 204.0674 0001120  93.3309 266.7820 15.30200450 15904
STARLINK-36783          
1 67873U 26034Z   26146.29770260  .00023325  00000+0  69919-3 0  9999
2 67873  53.1577 201.9247 0000907  60.1290 299.9803 15.34406174 15944
STARLINK-36730          
1 67874U 26034AA  26146.29349363  .00033539  00000+0  99887-3 0  9991
2 67874  53.1575 201.8986 0001131  67.2655 292.8467 15.34414604 15940
STARLINK-36727          
1 67875U 26034AB  26145.89281641  .00016109  00000+0  52960-3 0  9996
2 67875  53.1586 205.0805 0001151  84.9226 275.1907 15.31709418 15862
STARLINK-36743          
1 67876U 26034AC  26146.16183421  .00015535  00000+0  53537-3 0  9998
2 67876  53.1600 204.6303 0001479  93.4334 266.6837 15.30210026 15897
STARLINK-36784          
1 67877U 26034AD  26146.30822765  .00015669  00000+0  55395-3 0  9998
2 67877  53.1578 204.1393 0001058  83.9490 276.1631 15.29370260 15912
STARLINK-36689          
1 67878U 26034AE  26146.15232851  .00019015  00000+0  65201-3 0  9999
2 67878  53.1586 204.5683 0001207  84.7140 275.3999 15.30224316 15892
STARLINK-36818          
1 67879U 26035A   26146.27405487  .00020348  00000+0  63090-3 0  9996
2 67879  97.2845  79.7142 0001931  94.5641 265.5822 15.33445184 15876
STARLINK-36821          
1 67880U 26035B   26146.27133354  .00024279  00000+0  75172-3 0  9990
2 67880  97.2834  79.7177 0001176 106.0126 254.1246 15.33455322 15871
STARLINK-36808          
1 67881U 26035C   26146.29308558  .00018611  00000+0  57734-3 0  9990
2 67881  97.2851  79.8437 0001304  94.8800 265.2592 15.33448032 15885
STARLINK-36817          
1 67882U 26035D   26146.24686332  .00032863  00000+0  10154-2 0  9994
2 67882  97.2827  79.7520 0001136  83.6418 276.4954 15.33457922 15878
STARLINK-36856          
1 67883U 26035E   26146.05381649  .00023314  00000+0  72209-3 0  9998
2 67883  97.2845  79.5562 0001513 102.1310 258.0103 15.33451184 15843
STARLINK-36842          
1 67884U 26035F   26146.26861161  .00036404  00000+0  11238-2 0  9992
2 67884  97.2853  79.7234 0000873 123.5337 236.5990 15.33466599 15879
STARLINK-36826          
1 67885U 26035G   26146.25773760  .00036143  00000+0  11160-2 0  9993
2 67885  97.2828  79.7344 0000831  96.0614 264.0723 15.33460816 15876
STARLINK-36390          
1 67886U 26035H   26146.26589597  .00000043  00000+0  36727-5 0  9997
2 67886  97.2849  79.7257 0001829  95.0724 265.0728 15.33461519 15879
STARLINK-36368          
1 67887U 26035J   26146.30124444  .00024653  00000+0  76341-3 0  9996
2 67887  97.2835  79.8333 0002200 109.9978 250.1502 15.33446329 15889
STARLINK-36801          
1 67888U 26035K   26146.30396495  .00027254  00000+0  84351-3 0  9994
2 67888  97.2831  79.8298 0002430 105.0561 255.0951 15.33441891 15887
STARLINK-36372          
1 67889U 26035L   26145.78735762  .00027951  00000+0  86462-3 0  9999
2 67889  97.2847  79.3076 0001923 106.8214 253.3240 15.33454407 15805
STARLINK-36363          
1 67890U 26035M   26146.26045661  .00037309  00000+0  11516-2 0  9992
2 67890  97.2858  79.7333 0000944 107.4638 252.6708 15.33462559 15873
STARLINK-36816          
1 67891U 26035N   26146.27529394  .00023024  00000+0  71318-3 0  9990
2 67891  97.2860  78.8045 0001235 100.5074 259.6308 15.33450653 15818
STARLINK-36813          
1 67892U 26035P   26146.27676808  .00033424  00000+0  10325-2 0  9999
2 67892  97.2848  79.8682 0000522 120.1520 239.9775 15.33463002 15883
STARLINK-36803          
1 67893U 26035Q   26146.28492318  .00029265  00000+0  90551-3 0  9991
2 67893  97.2850  79.8555 0001006 133.3283 226.8043 15.33437493 15884
STARLINK-36846          
1 67894U 26035R   26146.26317313  .00021493  00000+0  66640-3 0  9998
2 67894  97.2846  79.7305 0000964  92.9016 267.2337 15.33434404 15871
STARLINK-36866          
1 67895U 26035S   26146.25230045  .00035036  00000+0  10821-2 0  9991
2 67895  97.2827  79.7459 0000797 102.6980 257.4352 15.33458727 15876
STARLINK-36877          
1 67896U 26035T   26146.29036610  .00016599  00000+0  51572-3 0  9990
2 67896  97.2852  79.8470 0001532  75.8490 284.2922 15.33421176 15884
STARLINK-36870          
1 67897U 26035U   26146.29580775  .00022748  00000+0  70476-3 0  9994
2 67897  97.2855  79.8402 0002395 101.4328 258.7184 15.33446720 15885
STARLINK-36810          
1 67898U 26035V   26146.24142489  .00031676  00000+0  97921-3 0  9990
2 67898  97.2857  79.7619 0001438  92.2972 267.8436 15.33450440 15870
