OBJECT_NAME,OBJECT_ID,EPOCH,MEAN_MOTION,ECCENTRICITY,INCLINATION,RA_OF_ASC_NODE,ARG_OF_PERICENTER,MEAN_ANOMALY,EPHEMERIS_TYPE,CLASSIFICATION_TYPE,NORAD_CAT_ID,ELEMENT_SET_NO,REV_AT_EPOCH,BSTAR,MEAN_MOTION_DOT,MEAN_MOTION_DDOT
STARLINK-36779,2026-034V,2026-05-26T07:11:43.166688,15.34415491,.00008026,53.1577,201.9421,66.6644,293.4443,0,U,67869,999,1593,.53316887E-3,.17689E-3,0
STARLINK-36770,2026-034W,2026-05-25T20:49:42.748896,15.30209889,.00008579,53.1569,205.6359,84.5511,275.5588,0,U,67870,999,1585,.45445257E-3,.13128E-3,0
STARLINK-36769,2026-034X,2026-05-25T11:22:21.620640,15.30203721,.00016301,53.1565,207.4439,94.0076,266.1111,0,U,67871,999,1579,.49856329E-3,.14437E-3,0
STARLINK-36786,2026-034Y,2026-05-26T04:27:49.720032,15.30200450,.00011202,53.1571,204.0674,93.3309,266.7820,0,U,67872,999,1590,.64060525E-3,.18662E-3,0
STARLINK-36783,2026-034Z,2026-05-26T07:08:41.504640,15.34406174,.00009079,53.1577,201.9247,60.1290,299.9803,0,U,67873,999,1594,.69919043E-3,.23325E-3,0
STARLINK-36730,2026-034AA,2026-05-26T07:02:37.849632,15.34414604,.00011316,53.1575,201.8986,67.2655,292.8467,0,U,67874,999,1594,.99886885E-3,.33539E-3,0
STARLINK-36727,2026-034AB,2026-05-25T21:25:39.337824,15.31709418,.00011517,53.1586,205.0805,84.9226,275.1907,0,U,67875,999,1586,.52960217E-3,.16109E-3,0
STARLINK-36743,2026-034AC,2026-05-26T03:53:02.475744,15.30210026,.00014799,53.1600,204.6303,93.4334,266.6837,0,U,67876,999,1589,.53536673E-3,.15535E-3,0
STARLINK-36784,2026-034AD,2026-05-26T07:23:50.868960,15.29370260,.0001058,53.1578,204.1393,83.9490,276.1631,0,U,67877,999,1591,.55394928E-3,.15669E-3,0
STARLINK-36689,2026-034AE,2026-05-26T03:39:21.183264,15.30224316,.00012078,53.1586,204.5683,84.7140,275.3999,0,U,67878,999,1589,.65201225E-3,.19015E-3,0
STARLINK-36818,2026-035A,2026-05-26T06:34:38.340768,15.33445184,.0001931,97.2845,79.7142,94.5641,265.5822,0,U,67879,999,1587,.63089915E-3,.20348E-3,0
STARLINK-36821,2026-035B,2026-05-26T06:30:43.217856,15.33455322,.0001176,97.2834,79.7177,106.0126,254.1246,0,U,67880,999,1587,.75172498E-3,.24279E-3,0
STARLINK-36808,2026-035C,2026-05-26T07:02:02.594112,15.33448032,.00013044,97.2851,79.8437,94.8800,265.2592,0,U,67881,999,1588,.57734165E-3,.18611E-3,0
STARLINK-36817,2026-035D,2026-05-26T05:55:28.990848,15.33457922,.0001136,97.2827,79.7520,83.6418,276.4954,0,U,67882,999,1587,.10154192E-2,.32863E-3,0
STARLINK-36856,2026-035E,2026-05-26T01:17:29.744736,15.33451184,.00015137,97.2845,79.5562,102.1310,258.0103,0,U,67883,999,1584,.72209128E-3,.23314E-3,0
STARLINK-36842,2026-035F,2026-05-26T06:26:48.043104,15.33466599,.00008737,97.2853,79.7234,123.5337,236.5990,0,U,67884,999,1587,.11237743E-2,.36404E-3,0
STARLINK-36826,2026-035G,2026-05-26T06:11:08.528640,15.33460816,.00008317,97.2828,79.7344,96.0614,264.0723,0,U,67885,999,1587,.11159529E-2,.36143E-3,0
STARLINK-36390,2026-035H,2026-05-26T06:22:53.411808,15.33461519,.00018293,97.2849,79.7257,95.0724,265.0728,0,U,67886,999,1587,.3672657E-5,.43E-6,0
STARLINK-36368,2026-035J,2026-05-26T07:13:47.519616,15.33446329,.00022008,97.2835,79.8333,109.9978,250.1502,0,U,67887,999,1588,.76341036E-3,.24653E-3,0
STARLINK-36801,2026-035K,2026-05-26T07:17:42.571680,15.33441891,.00024308,97.2831,79.8298,105.0561,255.0951,0,U,67888,999,1588,.84350674E-3,.27254E-3,0
STARLINK-36372,2026-035L,2026-05-25T18:53:47.698368,15.33454407,.00019233,97.2847,79.3076,106.8214,253.3240,0,U,67889,999,1580,.86462388E-3,.27951E-3,0
STARLINK-36363,2026-035M,2026-05-26T06:15:03.451104,15.33462559,.00009446,97.2858,79.7333,107.4638,252.6708,0,U,67890,999,1587,.1151649E-2,.37309E-3,0
STARLINK-36816,2026-035N,2026-05-26T06:36:25.396416,15.33450653,.00012357,97.2860,78.8045,100.5074,259.6308,0,U,67891,999,1581,.71318464E-3,.23024E-3,0
STARLINK-36813,2026-035P,2026-05-26T06:38:32.762112,15.33463002,.00005224,97.2848,79.8682,120.1520,239.9775,0,U,67892,999,1588,.10324959E-2,.33424E-3,0
STARLINK-36803,2026-035Q,2026-05-26T06:50:17.362752,15.33437493,.00010069,97.2850,79.8555,133.3283,226.8043,0,U,67893,999,1588,.90551061E-3,.29265E-3,0
STARLINK-36846,2026-035R,2026-05-26T06:18:58.158432,15.33434404,.00009648,97.2846,79.7305,92.9016,267.2337,0,U,67894,999,1587,.666402E-3,.21493E-3,0
STARLINK-36866,2026-035S,2026-05-26T06:03:18.758880,15.33458727,.00007978,97.2827,79.7459,102.6980,257.4352,0,U,67895,999,1587,.10820838E-2,.35036E-3,0
STARLINK-36877,2026-035T,2026-05-26T06:58:07.631040,15.33421176,.00015326,97.2852,79.8470,75.8490,284.2922,0,U,67896,999,1588,.51571696E-3,.16599E-3,0
STARLINK-36870,2026-035U,2026-05-26T07:05:57.789600,15.33446720,.00023953,97.2855,79.8402,101.4328,258.7184,0,U,67897,999,1588,.70475544E-3,.22748E-3,0
STARLINK-36810,2026-035V,2026-05-26T05:47:39.110496,15.33450440,.00014381,97.2857,79.7619,92.2972,267.8436,0,U,67898,999,1587,.97921152E-3,.31676E-3,0
